CAS-2T & KS-1Q          
1 41847U 16066G   20191.40253430  .00000051  00000-0  17725-4 0  9999
2 41847  98.6521 242.1399 0366108 163.3615 197.9968 14.38076246192570
NAYIF-1 (EO-88)         
1 42017U 17008BX  20191.37741520  .00000970  00000-0  39879-4 0  9998
2 42017  97.3588 258.6195 0004715 234.8328 125.2470 15.26548427188898
MAX VALIER SAT          
1 42778U 17036P   20191.42342463  .00000580  00000-0  27820-4 0  9992
2 42778  97.3033 244.4504 0010700 310.5435  49.4870 15.22653024169072
RADFXSAT (FOX-1B)       
1 43017U 17073E   20191.31000233  .00000427  00000-0  38964-4 0  9995
2 43017  97.7219 102.7021 0256459 339.5083  19.5983 14.78964207142399
FOX-1D (AO-92)          
1 43137U 18004AC  20191.47778156  .00000638  00000-0  29159-4 0  9996
2 43137  97.4449 262.4892 0008619 349.2667  10.8385 15.24158278138393
DIWATA-2B               
1 43678U 18084H   20191.54418167 -.00000311  00000-0 -25200-4 0  9998
2 43678  97.8872 309.9497 0011249 102.5295 257.7199 14.91633911 92316
ES'HAIL 2               
1 43700U 18090A   20191.31049787  .00000136  00000-0  00000-0 0  9994
2 43700   0.0136  61.0649 0001651  73.3123 290.8729  1.00273082  5920
FOX-1CLIFF (AO-95)      
1 43770U 18099N   20191.46206500  .00000162  00000-0  19997-4 0  9992
2 43770  97.7048 262.4586 0015948 121.1856 239.0930 14.95000546 87209
ITASAT 1                
1 43786U 18099AE  20191.45400984 -.00000168  00000-0 -10007-4 0  9991
2 43786  97.7064 262.8859 0016584 115.3376 244.9564 14.95338505 87229
JY1SAT (JO-97)          
1 43803U 18099AX  20191.46593674  .00000282  00000-0  30579-4 0  9992
2 43803  97.7023 262.7112 0016619 115.8576 244.4361 14.95516706 87222
PSAT2 (NO-104)          
1 44354U 19036R   20191.42701018  .00007117  00000-0  10104-3 0  9990
2 44354  28.5293 236.2708 0363173 185.6816 173.9577 15.03735526 57139
BRICSAT2 (NO-103)       
1 44355U 19036S   20191.42137493  .00012133  00000-0  16669-3 0  9997
2 44355  28.5298 226.4553 0341019 201.6355 156.9512 15.09325873 57233
JAISAT-1                
1 44419U 19038F   20191.44920297  .00000611  00000-0  38329-4 0  9990
2 44419  97.5398 152.7886 0023113  57.2798 303.0657 15.12808983 55920
DUCHIFAT-3              
1 44854U 19089C   20191.54164007  .00000243  00000-0  26064-4 0  9993
2 44854  36.9691 327.8154 0008876 252.1075 107.8711 14.99080907 31615
RS-44 & BREEZE-KM R/B   
1 44909U 19096E   20191.40615293  .00000022  00000-0  39044-4 0  9992
2 44909  82.5223 340.7236 0217572 174.9007 185.4385 12.79708184 24992
ORBITAL FACTORY 2 (OF-2)
1 45113U 19071C   20191.44731682  .00000961  00000-0  40851-4 0  9998
2 45113  51.6436 257.2974 0013351 135.6089 224.5966 15.33417712 24501
HUSKYSAT-1              
1 45119U 19071J   20191.48780667  .00000539  00000-0  27863-4 0  9994
2 45119  51.6435 256.8185 0012631 132.1829 228.0227 15.33629152 24501
